39P/Oterma,e,1.5460,298.1685,99.1137,7.315744,0.0498100,0.21913405,346.4979,09/21.0/2022,2000,g  7.0,6.0
# From MPC100283
40P/Vaisala,e,11.4676,133.7556,47.3832,4.954527,0.0893719,0.63014484,257.0328,09/21.0/2022,2000,g  5.5,12.0
# From MPC105240
41P/Tuttle-Giacobini-Kresak,e,9.2206,140.9889,62.2107,3.088280,0.1816056,0.65995617,1.3784,09/21.0/2022,2000,g 10.0,16.0
# From MPC 94283
42P/Neujmin,e,3.9914,150.1750,147.2341,4.873594,0.0916073,0.58481911,249.0344,09/21.0/2022,2000,g 13.0,6.0
# From MPEC 2022-C56
43P/Wolf-Harrington,e,9.3322,244.0493,224.0902,4.319436,0.1097902,0.43523886,244.6780,09/21.0/2022,2000,g  8.0,6.0
# From MPEC 2022-S20
44P/Reinmuth,e,5.8958,286.4402,58.0669,3.690969,0.1389932,0.42766412,20.9674,09/21.0/2022,2000,g  8.3,6.0
# From MPEC 2022-O01
45P/Honda-Mrkos-Pajdusakova,e,4.3227,87.7002,327.9116,3.055244,0.1845590,0.81762095,27.1387,09/21.0/2022,2000,g 13.5,8.0
# From MPEC 2021-O56
46P/Wirtanen,e,11.7481,82.1594,356.3267,3.091747,0.1813002,0.65860743,250.0227,09/21.0/2022,2000,g 14.0,6.0
# From MPEC 2022-HC2
47P/Ashbrook-Jackson,e,13.0412,356.9212,357.7214,4.122504,0.1177504,0.31869398,226.6965,09/21.0/2022,2000,g  1.0,11.2
# From MPEC 2021-F20
48P/Johnson,e,12.2019,110.1035,216.7231,3.501049,0.1504551,0.42726499,225.6131,09/21.0/2022,2000,g 12.4,4.0
# From MPEC 2021-F20
49P/Arend-Rigaux,e,19.0497,118.7930,332.9201,3.569557,0.1461445,0.59844994,223.6425,09/21.0/2022,2000,g 13.4,4.0
# From MPEC 2015-S97
50P/Arend,e,19.1006,355.1775,49.3337,4.087757,0.1192549,0.52951215,288.4587,09/21.0/2022,2000,g  9.5,6.0
# From MPEC 2022-R68
51P/Harrington,e,5.4264,83.6564,269.3010,3.708888,0.1379871,0.54368797,358.5148,09/21.0/2022,2000,g 10.0,8.0
# From NK 3014
51P-A/Harrington,e,5.4258,83.6711,269.2541,3.709670,0.1379435,0.54372665,358.2202,09/21.0/2022,2000,g 10.0,8.0
# From MPEC 2022-PB4
51P-D/Harrington,e,5.4264,83.6573,269.2996,3.708882,0.1379874,0.54368835,358.5149,09/21.0/2022,2000,g 16.0,8.0
# From MPEC 2022-L66
52P/Harrington-Abell,e,10.2312,336.8349,139.5712,3.864257,0.1297493,0.54019982,45.5197,09/21.0/2022,2000,g 13.5,6.0
# From MPC100283
53P/Van Biesbroeck,e,6.6091,148.8145,134.5073,5.431027,0.0778720,0.55088405,181.8654,09/21.0/2022,2000,g  7.7,4.8
# From MPC 89011
54P/de Vico-Swift-NEAT,e,6.0646,358.8164,1.8556,3.789323,0.1336170,0.42642906,264.6430,09/21.0/2022,2000,g  9.0,4.0
# From MPC 31070
55P/Tempel-Tuttle,e,162.4887,235.4162,172.4765,10.35706,0.0295699,0.90551190,266.4551,09/21.0/2022,2000,g  9.0,4.0
# From MPC101100
56P/Slaughter-Burnham,e,8.1606,345.9904,44.0132,5.066763,0.0864188,0.50833757,194.6109,09/21.0/2022,2000,g  8.5,6.0
# From MPEC 2022-RD9
57P/duToit-Neujmin-Delporte,e,2.8523,188.7730,115.1824,3.444972,0.1541436,0.50093644,52.2117,09/21.0/2022,2000,g 12.5,6.0
# From MPEC 2021-O56
58P/Jackson-Neujmin,e,13.1082,159.0747,200.5246,4.087534,0.1192647,0.66279529,100.9271,09/21.0/2022,2000,g 15.5,6.0
# From MPEC 2021-F20
59P/Kearns-Kwee,e,9.3428,312.8061,127.5056,4.484088,0.1037989,0.47587114,152.0554,09/21.0/2022,2000,g  7.0,6.0
# From MPEC 2021-F20
60P/Tsuchinshan,e,3.5813,267.4629,216.9859,3.525621,0.1488849,0.53366163,206.0259,09/21.0/2022,2000,g 11.5,6.0
# From MPEC 2022-S20
61P/Shajn-Schaldach,e,5.9996,162.9661,221.6676,3.691949,0.1389378,0.42420066,355.4377,09/21.0/2022,2000,g  6.0,10.0
# From MPC109147
62P/Tsuchinshan,e,4.7358,68.7541,47.3404,3.367022,0.1595274,0.62542905,286.6353,09/21.0/2022,2000,g  8.0,10.0
# From MPC 84320
63P/Wild,e,19.7293,358.0188,169.0081,5.610766,0.0741602,0.64942386,257.0542,09/21.0/2022,2000,g 10.5,6.0
# From MPEC 2021-F20
64P/Swift-Gehrels,e,8.9489,299.9362,97.1240,4.452727,0.1048975,0.68854650,148.5171,09/21.0/2022,2000,g 13.4,4.0
# From MPEC 2022-K19
65P/Gunn,e,9.1761,61.9930,213.8982,3.888300,0.1285477,0.24864642,231.4495,09/21.0/2022,2000,g  5.0,6.0
# From MPEC 2021-F20
66P/duToit,e,18.6394,21.7825,257.4745,6.069871,0.0659075,0.78606918,104.5753,09/21.0/2022,2000,g 15.0,4.0
# From MPEC 2022-PB4
67P/Churyumov-Gerasimenko,e,3.8718,36.3296,22.1460,3.456833,0.1533510,0.64980514,49.5180,09/21.0/2022,2000,g 11.0,4.0
# From MPEC 2022-H04
68P/Klemola,e,11.1116,175.0451,153.2290,4.958019,0.0892774,0.63737461,93.4644,09/21.0/2022,2000,g 12.7,4.0
# From MPC114607
69P/Taylor,e,22.0422,104.8098,343.3934,3.885052,0.1287090,0.41366222,165.0906,09/21.0/2022,2000,g  9.5,12.0
# From MPEC 2022-P82
70P/Kojima,e,6.5977,119.2622,1.8091,3.677880,0.1397358,0.45385877,44.9843,09/21.0/2022,2000,g 11.0,6.0
# From MPEC 2022-M88
71P/Clark,e,9.4379,59.3939,209.0681,3.138785,0.1772400,0.49381794,338.0576,09/21.0/2022,2000,g  9.8,6.0
# From MPC 89011
72P/Denning-Fujikawa,e,10.9485,26.7008,346.7225,4.308116,0.1102232,0.81865811,330.4730,09/21.0/2022,2000,g 17.5,10.0
# From MPEC 2022-S20
73P/Schwassmann-Wachmann,e,11.2278,69.6102,199.4895,3.092049,0.1812736,0.68533437,4.7513,09/21.0/2022,2000,g 11.5,6.0
# From MPC106348
73P-T/Schwassmann-Wachmann,e,11.2298,69.6128,199.4698,3.093516,0.1811447,0.68553071,4.4915,09/21.0/2022,2000,g 11.5,6.0
# From MPEC 2022-P18
73P-U/Schwassmann-Wachmann,e,11.0694,70.6769,199.8756,2.875980,0.2020809,0.66606683,5.4806,09/21.0/2022,2000,g 19.0,4.0
# From MPEC 2022-P18
73P-V/Schwassmann-Wachmann,e,11.2463,69.4535,199.3247,3.167998,0.1747940,0.69230514,4.7272,09/21.0/2022,2000,g 19.0,4.0
# From MPEC 2022-R15
73P-W/Schwassmann-Wachmann,e,11.6019,67.3174,198.7299,4.590355,0.1002155,0.78204237,2.6600,09/21.0/2022,2000,g 18.2,4.0
# From MPEC 2022-R15
73P-X/Schwassmann-Wachmann,e,11.2557,69.5283,199.3722,3.095872,0.1809379,0.68544148,4.8290,09/21.0/2022,2000,g 17.6,4.0
# From MPEC 2022-R15
73P-Y/Schwassmann-Wachmann,e,11.1980,69.7678,199.4631,3.033951,0.1865053,0.67994055,5.1690,09/21.0/2022,2000,g 17.4,4.0
# From MPEC 2022-P18
73P-BU/Schwassmann-Wachmann,e,11.0694,70.6769,199.8756,2.875980,0.2020809,0.66606683,5.4806,09/21.0/2022,2000,g 19.0,4.0
# From MPEC 2022-P18
73P-BV/Schwassmann-Wachmann,e,11.2463,69.4535,199.3247,3.167998,0.1747940,0.69230514,4.7272,09/21.0/2022,2000,g 19.0,4.0
# From MPEC 2022-R15
73P-BW/Schwassmann-Wachmann,e,11.6019,67.3174,198.7299,4.590355,0.1002155,0.78204237,2.6600,09/21.0/2022,2000,g 18.2,4.0
# From MPEC 2022-R15
73P-BX/Schwassmann-Wachmann,e,11.2557,69.5283,199.3722,3.095872,0.1809379,0.68544148,4.8290,09/21.0/2022,2000,g 17.6,4.0
# From MPEC 2022-R15
73P-BY/Schwassmann-Wachmann,e,11.1980,69.7678,199.4631,3.033951,0.1865053,0.67994055,5.1690,09/21.0/2022,2000,g 17.4,4.0
# From MPEC 2022-S20
74P/Smirnova-Chernykh,e,6.1960,56.6315,136.2974,4.561815,0.1011574,0.10022568,159.7451,09/21.0/2022,2000,g  5.0,6.0
# From MPEC 2022-K19
76P/West-Kohoutek-Ikemura,e,30.4764,84.1049,359.9359,3.470950,0.1524164,0.53856938,161.6783,09/21.0/2022,2000,g  8.0,12.0
# From MPEC 2022-M21
77P/Longmore,e,24.3188,14.7684,196.7531,3.623787,0.1428763,0.35188271,332.2554,09/21.0/2022,2000,g  7.0,8.0
# From MPEC 2021-O56
78P/Gehrels,e,6.2561,210.5162,192.6374,3.737357,0.1364134,0.46275291,172.7302,09/21.0/2022,2000,g  5.5,8.0
# From MPC 94675
79P/du Toit-Hartley,e,3.1484,280.5234,281.7820,2.943462,0.1951715,0.61904142,286.9259,09/21.0/2022,2000,g 16.0,4.0
# From MPEC 2014-P41
80P/Peters-Hartley,e,29.9224,259.7974,339.2471,4.024196,0.1220915,0.59859875,350.3712,09/21.0/2022,2000,g  9.0,4.0
# From MPEC 2022-P82
81P/Wild,e,3.2365,136.0990,41.6351,3.453960,0.1535423,0.53722033,346.8521,09/21.0/2022,2000,g  7.0,6.0
# From MPC133426
82P/Gehrels,e,1.1291,239.3191,226.4068,4.133628,0.1172754,0.12192535,181.8858,09/21.0/2022,2000,g 15.0,4.0
# From MPEC 2020-FB5
84P/Giclas,e,7.5504,108.1497,281.6133,3.549752,0.1473693,0.51602920,123.6149,09/21.0/2022,2000,g  9.5,8.0
# From MPEC 2022-QD9
86P/Wild,e,15.4744,72.3513,179.4500,3.601931,0.1441787,0.37229974,32.4813,09/21.0/2022,2000,g 11.0,6.0
# From MPEC 2020-SI8
87P/Bus,e,3.0235,180.7881,27.9251,3.463743,0.1528923,0.40834635,128.0134,09/21.0/2022,2000,g  7.2,10.0
# From MPEC 2022-ED3
88P/Howell,e,4.3824,56.6734,235.9334,3.105897,0.1800626,0.56383084,130.4802,09/21.0/2022,2000,g 11.0,6.0
# From MPC100283
89P/Russell,e,12.0711,41.3500,250.3965,3.753650,0.1355263,0.40822631,285.1219,09/21.0/2022,2000,g 11.5,6.0
# From MPEC 2022-K19
90P/Gehrels,e,9.6513,13.2055,29.0544,6.051159,0.0662135,0.51088601,126.9895,09/21.0/2022,2000,g  8.5,6.0
# From MPEC 2021-S45
91P/Russell,e,14.1242,247.0217,355.8299,3.904075,0.1277694,0.33370051,86.6999,09/21.0/2022,2000,g  7.5,6.0
# From MPEC 2014-J58
92P/Sanguin,e,19.5083,181.3616,163.7998,5.343167,0.0798006,0.66103728,219.8365,09/21.0/2022,2000,g 12.0,6.0
# From NK 2707
93P/Lovas,e,12.2033,339.6387,74.8272,4.380402,0.1075061,0.61342513,218.0851,09/21.0/2022,2000,g  9.0,4.0
# From MPEC 2021-Y10
94P/Russell,e,6.1879,70.8578,92.4313,3.508592,0.1499701,0.36526767,323.6872,09/21.0/2022,2000,g  9.0,6.0
# From MPC 75717
95P/Chiron,e,6.9202,209.3009,339.5120,13.71183,0.0194116,0.37624228,189.7142,09/21.0/2022,2000,g  6.5,2.0
# From MPEC 2022-S20
96P/Machholz,e,57.5052,93.9560,14.7488,3.030218,0.1868501,0.96157976,335.3176,09/21.0/2022,2000,g 13.0,4.8
# From MPEC 2022-C56
97P/Metcalf-Brewington,e,17.9521,184.0768,229.9887,4.760602,0.0948880,0.46007635,20.6275,09/21.0/2022,2000,g  5.5,6.0
# From MPEC 2021-W31
98P/Takamizawa,e,10.5608,114.6835,157.8157,3.794310,0.1333536,0.56220796,83.2585,09/21.0/2022,2000,g  9.0,8.0
# From MPEC 2022-R68
99P/Kowal,e,4.3399,28.1016,174.8879,6.103462,0.0653642,0.22896083,10.5750,09/21.0/2022,2000,g  4.5,6.0
# From MPEC 2022-QD9
100P/Hartley,e,25.5665,37.6872,181.9707,3.431880,0.1550265,0.41209226,6.3639,09/21.0/2022,2000,g  9.0,8.0
# From MPEC 2022-K19
101P/Chernykh,e,5.0513,116.2121,277.7483,5.807683,0.0704206,0.59634166,69.1523,09/21.0/2022,2000,g 10.0,4.8
# From MPEC 2022-C56
102P/Shoemaker,e,25.8834,339.3673,20.6237,3.815650,0.1322365,0.45716050,80.1876,09/21.0/2022,2000,g  6.5,8.0
# From MPEC 2018-HA5
103P/Hartley,e,13.6096,219.7482,181.2922,3.475166,0.1521391,0.69369070,301.1916,09/21.0/2022,2000,g  8.5,8.0
# From MPEC 2022-P82
104P/Kowal,e,5.7021,207.2070,227.2529,3.208211,0.1715180,0.66555675,43.2851,09/21.0/2022,2000,g 16.0,4.0
# From MPC109147
